COSMOS 2058             
1 20465U 90010A   26076.99026432  .00003185  00000+0  18689-3 0  9994
2 20465  82.4670  39.2478 0008217 315.6632  44.3939 15.11394633943490
SL-14 R/B               
1 20466U 90010B   26077.25259345  .00000443  00000+0  50813-4 0  9996
2 20466  82.4986 259.3427 0018315 271.9027  88.0090 14.83576634929759
SL-14 R/B               
1 20511U 90018B   26076.87359243  .00000433  00000+0  51247-4 0  9991
2 20511  82.5218 215.4407 0017520  67.2365 293.0698 14.82153577923794
HST                     
1 20580U 90037B   26077.03336856  .00005936  00000+0  19324-3 0  9994
2 20580  28.4724 343.0766 0001638 212.8737 147.1757 15.29615021774597
SL-16 R/B               
1 20625U 90046B   26077.25090862  .00000061  00000+0  55863-4 0  9995
2 20625  70.9969 279.9329 0016137 288.2482  71.6884 14.15011169849600
COSMOS 2084             
1 20663U 90055A   26076.95721271  .00001703  00000+0  13094-3 0  9991
2 20663  62.7906 307.3804 0015780 192.2663 167.8056 15.05696347937563
SL-6 R/B(2)             
1 20666U 90055D   26077.15068998  .00001849  00000+0  14815-3 0  9990
2 20666  62.7824 225.0754 0026166 349.0888  10.9640 15.03636285939467
SL-8 R/B                
1 20775U 90078B   26077.10863747  .00010339  00000+0  30500-3 0  9999
2 20775  82.9000 243.7363 0360416 345.6606  13.4582 14.89335208810555
SL-8 R/B                
1 21088U 91006B   26077.00015462  .00000080  00000+0  65424-4 0  9997
2 21088  82.9459 163.8679 0022572  15.6453 157.5489 13.77495370765216
OKEAN-3                 
1 21397U 91039A   26077.12375857  .00002114  00000+0  14740-3 0  9990
2 21397  82.5197 328.6740 0013079 305.7179  54.2830 15.04864744866306
COSMOS 2151             
1 21422U 91042A   26077.22131862  .00001992  00000+0  15726-3 0  9998
2 21422  82.4931  75.4435 0013439  37.5128 322.7031 15.00140618864477
SL-14 R/B               
1 21423U 91042B   26076.86081624  .00000437  00000+0  52322-4 0  9995
2 21423  82.4938 212.5205 0016288 210.0281 150.0001 14.81838107854289
